NORAD_CAT_ID,OBJECT_NAME,OBJECT_TYPE,EPOCH,MEAN_MOTION,ECCENTRICITY,INCLINATION,RA_OF_ASC_NODE,ARG_OF_PERICENTER,MEAN_ANOMALY,BSTAR,MEAN_MOTION_DOT,MEAN_MOTION_DDOT,TLE_LINE0,TLE_LINE1,TLE_LINE2,SEMIMAJOR_AXIS,PERIOD,APOGEE,PERIGEE,DECAYED
55426.0,STARLINK-5638,PAYLOAD,2023-12-05 04:02:11,14.98312501,0.0002691,70.0013,6.031,273.356,86.7291,0.00031888,3.712e-05,0.0,0 STARLINK-5638,1 55426U 23014AM  23339.16819078  .00003712  00000-0  31888-3 0  9996,2 55426  70.0013   6.0310 0002691 273.3560  86.7291 14.98312501 46961,6950.247,96.108,573.982,570.242,0.0
55426.0,STARLINK-5638,PAYLOAD,2023-12-05 12:02:51,14.98318132,0.0002302,70.0009,5.188,269.4003,90.6893,0.00032617,3.8e-05,0.0,0 STARLINK-5638,1 55426U 23014AM  23339.50198990  .00003800  00000-0  32617-3 0  9996,2 55426  70.0009   5.1880 0002302 269.4003  90.6893 14.98318132 47953,6950.23,96.108,573.695,570.495,0.0
55426.0,STARLINK-5638,PAYLOAD,2023-12-06 04:04:11,14.98339233,0.0003098,69.9998,3.5029,286.0439,74.0379,0.00026552,3.077e-05,0.0,0 STARLINK-5638,1 55426U 23014AM  23340.16957727  .00003077  00000-0  26552-3 0  9998,2 55426  69.9998   3.5029 0003098 286.0439  74.0379 14.98339233 47113,6950.164,96.106,574.182,569.876,0.0
55426.0,STARLINK-5638,PAYLOAD,2023-12-06 12:04:51,14.98342143,0.0002637,70.0005,2.662,282.0377,78.0486,0.00026843,3.112e-05,0.0,0 STARLINK-5638,1 55426U 23014AM  23340.50337298  .00003112  00000-0  26843-3 0  9994,2 55426  70.0005   2.6620 0002637 282.0377  78.0486 14.98342143 48104,6950.155,96.106,573.853,570.188,0.0
55426.0,STARLINK-5638,PAYLOAD,2023-12-07 04:06:12,14.9833468,0.0002794,70.0001,0.9791,273.7336,86.3504,-0.00011242,-1.434e-05,0.0,0 STARLINK-5638,1 55426U 23014AM  23341.17098257 -.00001434  00000-0 -11242-3 0  9991,2 55426  70.0001   0.9791 0002794 273.7336  86.3504 14.98334680 47262,6950.178,96.107,573.985,570.102,0.0
55426.0,STARLINK-5638,PAYLOAD,2023-12-07 10:30:45,14.98332508,0.0002633,70.0005,0.3063,270.699,89.3867,-0.00011325,-1.444e-05,0.0,0 STARLINK-5638,1 55426U 23014AM  23341.43802280 -.00001444  00000-0 -11325-3 0  9992,2 55426  70.0005   0.3063 0002633 270.6990  89.3867 14.98332508 48247,6950.185,96.107,573.88,570.22,0.0
55426.0,STARLINK-5638,PAYLOAD,2023-12-08 04:08:13,14.98336863,0.0002732,70.0006,358.455,267.9694,92.1152,-0.00015412,-1.932e-05,0.0,0 STARLINK-5638,1 55426U 23014AM  23342.17237681 -.00001932  00000-0 -15412-3 0  9994,2 55426  70.0006 358.4550 0002732 267.9694  92.1152 14.98336863 47411,6950.172,96.107,573.935,570.138,0.0
55426.0,STARLINK-5638,PAYLOAD,2023-12-08 10:32:47,14.98319057,0.0002471,70.0006,357.7811,273.9932,86.0944,-0.00031564,-3.856e-05,0.0,0 STARLINK-5638,1 55426U 23014AM  23342.43943330 -.00003856  00000-0 -31564-3 0  9991,2 55426  70.0006 357.7811 0002471 273.9932  86.0944 14.98319057 47456,6950.227,96.108,573.809,570.374,0.0
55426.0,STARLINK-5638,PAYLOAD,2023-12-09 10:34:47,14.9831611,0.0002756,69.9999,355.2561,272.4958,87.5885,-6.1152e-05,-8.22e-06,0.0,0 STARLINK-5638,1 55426U 23014AM  23343.44083315 -.00000822  00000-0 -61152-4 0  9998,2 55426  69.9999 355.2561 0002756 272.4958  87.5885 14.98316110 47601,6950.236,96.108,574.016,570.185,0.0
55426.0,STARLINK-5638,PAYLOAD,2023-12-10 01:00:00,14.98321293,0.0003205,69.9991,353.7404,276.6019,83.4775,3.9149e-05,3.74e-06,0.0,0 STARLINK-5638,1 55426U 23014AM  23344.04167003  .00000374  00000-0  39149-4 0  9993,2 55426  69.9991 353.7404 0003205 276.6019  83.4775 14.98321293 47696,6950.22,96.108,574.312,569.857,0.0
55426.0,STARLINK-5638,PAYLOAD,2023-12-11 04:14:17,14.98312388,0.0003157,69.9995,350.8762,288.8754,71.2063,0.00038927,4.553e-05,0.0,0 STARLINK-5638,1 55426U 23014AM  23345.17659010  .00004553  00000-0  38927-3 0  9997,2 55426  69.9995 350.8762 0003157 288.8754  71.2063 14.98312388 47861,6950.247,96.108,574.307,569.918,0.0
55426.0,STARLINK-5638,PAYLOAD,2023-12-11 10:38:49,14.98327419,0.000224,70.0004,350.2051,266.7266,93.3637,0.00016729,1.904e-05,0.0,0 STARLINK-5638,1 55426U 23014AM  23345.44362757  .00001904  00000-0  16729-3 0  9999,2 55426  70.0004 350.2051 0002240 266.7266  93.3637 14.98327419 47903,6950.201,96.107,573.623,570.509,0.0
55426.0,STARLINK-5638,PAYLOAD,2023-12-12 04:16:16,14.98344321,0.0002932,69.9994,348.3532,281.5173,78.5656,0.00011329,1.259e-05,0.0,0 STARLINK-5638,1 55426U 23014AM  23346.17797407  .00001259  00000-0  11329-3 0  9998,2 55426  69.9994 348.3532 0002932 281.5173  78.5656 14.98344321 48010,6950.149,96.106,574.051,569.976,0.0
55426.0,STARLINK-5638,PAYLOAD,2023-12-12 10:40:48,14.98346955,0.00025,69.9997,347.6804,280.469,79.6187,0.00012173,1.36e-05,0.0,0 STARLINK-5638,1 55426U 23014AM  23346.44500955  .00001360  00000-0  12173-3 0  9999,2 55426  69.9997 347.6804 0002500 280.4690  79.6187 14.98346955 48993,6950.14,96.106,573.743,570.268,0.0
55426.0,STARLINK-5638,PAYLOAD,2023-12-13 04:18:17,14.98336997,0.000227,70.0009,345.8309,265.2571,94.8329,-3.2835e-05,-4.85e-06,0.0,0 STARLINK-5638,1 55426U 23014AM  23347.17937439 -.00000485  00000-0 -32835-4 0  9998,2 55426  70.0009 345.8309 0002270 265.2571  94.8329 14.98336997 48164,6950.171,96.107,573.614,570.459,0.0
55426.0,STARLINK-5638,PAYLOAD,2023-12-13 09:06:42,14.98334719,0.000242,70.0007,345.3271,252.3545,107.735,-8.3691e-05,-1.091e-05,0.0,0 STARLINK-5638,1 55426U 23014AM  23347.37965574 -.00001091  00000-0 -83691-4 0  9991,2 55426  70.0007 345.3271 0002420 252.3545 107.7350 14.98334719 49136,6950.178,96.107,573.725,570.361,0.0
55426.0,STARLINK-5638,PAYLOAD,2023-12-14 04:20:18,14.98336828,0.0002546,70.0004,343.3055,266.5707,93.5161,-0.00011259,-1.436e-05,0.0,0 STARLINK-5638,1 55426U 23014AM  23348.18077146 -.00001436  00000-0 -11259-3 0  9993,2 55426  70.0004 343.3055 0002546 266.5707  93.5161 14.98336828 48311,6950.172,96.107,573.806,570.267,0.0
55426.0,STARLINK-5638,PAYLOAD,2023-12-14 09:08:42,14.983367,0.0002493,69.9999,342.7997,265.32,94.7674,-0.00011026,-1.408e-05,0.0,0 STARLINK-5638,1 55426U 23014AM  23348.38105078 -.00001408  00000-0 -11026-3 0  9992,2 55426  69.9999 342.7997 0002493 265.3200  94.7674 14.98336700 49283,6950.172,96.107,573.77,570.304,0.0
55426.0,STARLINK-5638,PAYLOAD,2023-12-15 04:22:19,14.98330024,0.0002696,70.0,340.7799,266.2967,93.7884,1.9085e-05,1.35e-06,0.0,0 STARLINK-5638,1 55426U 23014AM  23349.18216914  .00000135  00000-0  19085-4 0  9991,2 55426  70.0000 340.7799 0002696 266.2967  93.7884 14.98330024 48466,6950.193,96.107,573.932,570.184,0.0
55426.0,STARLINK-5638,PAYLOAD,2023-12-15 09:10:43,14.98330153,0.0002684,70.0,340.2749,265.7671,94.3181,2.0513e-05,1.52e-06,0.0,0 STARLINK-5638,1 55426U 23014AM  23349.38244896  .00000152  00000-0  20513-4 0  9990,2 55426  70.0000 340.2749 0002684 265.7671  94.3181 14.98330153 49437,6950.192,96.107,573.923,570.192,0.0
55426.0,STARLINK-5638,PAYLOAD,2023-12-16 09:12:44,14.98329259,0.0002665,70.0,337.7498,264.0881,95.9974,3.4772e-06,-5.1e-07,0.0,0 STARLINK-5638,1 55426U 23014AM  23350.38385011 -.00000051  00000-0  34772-5 0  9999,2 55426  70.0000 337.7498 0002665 264.0881  95.9974 14.98329259 48647,6950.195,96.107,573.912,570.208,0.0
55426.0,STARLINK-5638,PAYLOAD,2023-12-17 09:14:45,14.98329124,0.0002623,70.0002,335.2246,265.5705,94.5154,-5.7781e-06,-1.62e-06,0.0,0 STARLINK-5638,1 55426U 23014AM  23351.38525078 -.00000162  00000-0 -57781-5 0  9998,2 55426  70.0002 335.2246 0002623 265.5705  94.5154 14.98329124 48790,6950.196,96.107,573.884,570.238,0.0
55426.0,STARLINK-5638,PAYLOAD,2023-12-18 02:52:13,14.98335715,0.0002739,70.0,333.3724,269.2497,90.8348,6.201e-05,6.47e-06,0.0,0 STARLINK-5638,1 55426U 23014AM  23352.11960357  .00000647  00000-0  62010-4 0  9999,2 55426  70.0000 333.3724 0002739 269.2497  90.8348 14.98335715 48905,6950.175,96.107,573.944,570.137,0.0
55426.0,STARLINK-5638,PAYLOAD,2023-12-18 07:40:37,14.9833666,0.0002673,70.0,332.8673,268.5958,91.4895,0.00012893,1.446e-05,0.0,0 STARLINK-5638,1 55426U 23014AM  23352.31988029  .00001446  00000-0  12893-3 0  9998,2 55426  70.0000 332.8673 0002673 268.5958  91.4895 14.98336660 49874,6950.172,96.107,573.895,570.18,0.0
55426.0,STARLINK-5638,PAYLOAD,2023-12-19 02:54:15,14.98347917,0.00025,70.001,330.8505,229.0998,130.9944,-0.00038593,-4.697e-05,0.0,0 STARLINK-5638,1 55426U 23014AM  23353.12100696 -.00004697  00000-0 -38593-3 0  9992,2 55426  70.0010 330.8505 0002500 229.0998 130.9944 14.98347917 49053,6950.137,96.106,573.74,570.265,0.0
55426.0,STARLINK-5638,PAYLOAD,2023-12-19 07:42:39,14.9832104,0.0002585,70.0009,330.3442,257.1565,102.9305,-8.2214e-05,-1.073e-05,0.0,0 STARLINK-5638,1 55426U 23014AM  23353.32129579 -.00001073  00000-0 -82214-4 0  9990,2 55426  70.0009 330.3442 0002585 257.1565 102.9305 14.98321040 49083,6950.221,96.108,573.882,570.289,0.0
55426.0,STARLINK-5638,PAYLOAD,2023-12-20 02:56:16,14.98329155,0.0002689,70.0004,328.3233,257.9081,102.1777,-8.0722e-05,-1.056e-05,0.0,0 STARLINK-5638,1 55426U 23014AM  23354.12241211 -.00001056  00000-0 -80722-4 0  9990,2 55426  70.0004 328.3233 0002689 257.9081 102.1777 14.98329155 49203,6950.196,96.107,573.929,570.192,0.0
55426.0,STARLINK-5638,PAYLOAD,2023-12-20 07:44:40,14.98332965,0.0002728,70.0005,327.8193,253.1231,106.9629,-4.22e-05,-5.96e-06,0.0,0 STARLINK-5638,1 55426U 23014AM  23354.32268770 -.00000596  00000-0 -42200-4 0  9998,2 55426  70.0005 327.8193 0002728 253.1231 106.9629 14.98332965 50171,6950.184,96.107,573.945,570.153,0.0
55426.0,STARLINK-5638,PAYLOAD,2023-12-21 02:58:16,14.98327724,0.0002822,70.0004,325.7994,256.629,103.4555,0.00011821,1.318e-05,0.0,0 STARLINK-5638,1 55426U 23014AM  23355.12380653  .00001318  00000-0  11821-3 0  9997,2 55426  70.0004 325.7994 0002822 256.6290 103.4555 14.98327724 49359,6950.2,96.107,574.026,570.104,0.0
55426.0,STARLINK-5638,PAYLOAD,2023-12-21 07:46:40,14.98330705,0.0002767,70.0006,325.2945,253.8237,106.2618,0.00014819,1.676e-05,0.0,0 STARLINK-5638,1 55426U 23014AM  23355.32408379  .00001676  00000-0  14819-3 0  9992,2 55426  70.0006 325.2945 0002767 253.8237 106.2618 14.98330705 50323,6950.191,96.107,573.979,570.133,0.0
